NORAD_CAT_ID,OBJECT_NAME,OBJECT_TYPE,EPOCH,MEAN_MOTION,ECCENTRICITY,INCLINATION,RA_OF_ASC_NODE,ARG_OF_PERICENTER,MEAN_ANOMALY,BSTAR,MEAN_MOTION_DOT,MEAN_MOTION_DDOT,TLE_LINE0,TLE_LINE1,TLE_LINE2,SEMIMAJOR_AXIS,PERIOD,APOGEE,PERIGEE,DECAYED
53628.0,STARLINK-4600,PAYLOAD,2022-12-01 06:00:00,15.08848691,0.0002095,53.2162,195.7333,52.8935,226.123,-0.0020437,-0.00032675,0.0,0 STARLINK-4600,1 53628U 22104AS  22335.25001157 -.00032675  00000-0 -20437-2 0  9992,2 53628  53.2162 195.7333 0002095  52.8935 226.1230 15.08848691 14746,6917.854,95.437,541.168,538.27,0.0
53628.0,STARLINK-4600,PAYLOAD,2022-12-01 14:00:01,15.0882957,0.0002027,53.2161,194.2359,58.8375,231.7782,0.0021702,0.0003441,0.0,0 STARLINK-4600,1 53628U 22104AS  22335.58334491  .00034410  00000-0  21702-2 0  9991,2 53628  53.2161 194.2359 0002027  58.8375 231.7782 15.08829570  1303,6917.9119999999975,95.438,541.18,538.375,0.0
53628.0,STARLINK-4600,PAYLOAD,2022-12-01 22:00:00,15.088413699999998,0.0002217,53.2161,192.7414,54.2772,247.9348,0.00025577,3.785e-05,0.0,0 STARLINK-4600,1 53628U 22104AS  22335.91667824  .00003785  00000-0  25577-3 0  9993,2 53628  53.2161 192.7414 0002217  54.2772 247.9348 15.08841370 14853,6917.876,95.437,541.275,538.2080000000002,0.0
53628.0,STARLINK-4600,PAYLOAD,2022-12-02 14:00:01,15.08845171,0.0002114,53.2161,189.7468,59.7638,265.6547,0.001843,0.0002917,0.0,0 STARLINK-4600,1 53628U 22104AS  22336.58334491  .00029170  00000-0  18430-2 0  9993,2 53628  53.2161 189.7468 0002114  59.7638 265.6547 15.08845171  1302,6917.865,95.437,541.192,538.2669999999998,0.0
53628.0,STARLINK-4600,PAYLOAD,2022-12-02 22:00:00,15.0886294,0.0002257,53.2161,188.2522,54.3606,282.6732,-0.0025158,-0.00040131,0.0,0 STARLINK-4600,1 53628U 22104AS  22336.91667824 -.00040131  00000-0 -25158-2 0  9996,2 53628  53.2161 188.2522 0002257  54.3606 282.6732 15.08862940  1309,6917.81,95.436,541.237,538.114,0.0
53628.0,STARLINK-4600,PAYLOAD,2022-12-03 08:00:01,15.088375199999998,0.0002099,53.2162,186.3804,55.6863,25.855,-0.00019407,-3.375e-05,0.0,0 STARLINK-4600,1 53628U 22104AS  22337.33334491 -.00003375  00000-0 -19407-3 0  9994,2 53628  53.2162 186.3804 0002099  55.6863  25.8550 15.08837520 15064,6917.888000000001,95.438,541.205,538.3009999999998,0.0
53628.0,STARLINK-4600,PAYLOAD,2022-12-03 14:00:01,15.08834606,0.0002124,53.2162,185.2577,58.9935,301.2384,0.0015396,0.00024296,0.0,0 STARLINK-4600,1 53628U 22104AS  22337.58334491  .00024296  00000-0  15396-2 0  9996,2 53628  53.2162 185.2577 0002124  58.9935 301.2384 15.08834606  1315,6917.897,95.438,541.231,538.293,0.0
53628.0,STARLINK-4600,PAYLOAD,2022-12-03 22:00:00,15.08837225,0.0002318,53.2162,183.7631,54.3487,317.4846,0.00058519,9.037e-05,0.0,0 STARLINK-4600,1 53628U 22104AS  22337.91667824  .00009037  00000-0  58519-3 0  9993,2 53628  53.2162 183.7631 0002318  54.3487 317.4846 15.08837225  1307,6917.889,95.438,541.357,538.15,0.0
53628.0,STARLINK-4600,PAYLOAD,2022-12-04 06:00:00,15.08864591,0.0002229,53.2161,182.2657,54.8993,328.528,-0.0019383,-0.00031026,0.0,0 STARLINK-4600,1 53628U 22104AS  22338.25001157 -.00031026  00000-0 -19383-2 0  9992,2 53628  53.2161 182.2657 0002229  54.8993 328.5280 15.08864591 15201,6917.805,95.436,541.212,538.128,0.0
53628.0,STARLINK-4600,PAYLOAD,2022-12-04 14:00:01,15.08860136,0.0002157,53.2163,180.7686,59.0541,335.9801,-0.0017781,-0.00028492,0.0,0 STARLINK-4600,1 53628U 22104AS  22338.58334491 -.00028492  00000-0 -17781-2 0  9991,2 53628  53.2163 180.7686 0002157  59.0541 335.9801 15.08860136  1302,6917.819,95.436,541.1759999999998,538.192,0.0
53628.0,STARLINK-4600,PAYLOAD,2022-12-04 22:00:00,15.08821254,0.0002289,53.2163,179.274,53.7486,352.8961,0.00099739,0.00015613,0.0,0 STARLINK-4600,1 53628U 22104AS  22338.91667824  .00015613  00000-0  99739-3 0  9990,2 53628  53.2163 179.2740 0002289  53.7486 352.8961 15.08821254  1304,6917.938,95.439,541.386,538.219,0.0
53628.0,STARLINK-4600,PAYLOAD,2022-12-05 06:00:00,15.08849858,0.0002196,53.2162,177.7764,55.2836,2.9401,-0.0015987,-0.00025649,0.0,0 STARLINK-4600,1 53628U 22104AS  22339.25001157 -.00025649  00000-0 -15987-2 0  9993,2 53628  53.2162 177.7764 0002196  55.2836   2.9401 15.08849858 15357,6917.85,95.437,541.234,538.196,0.0
53628.0,STARLINK-4600,PAYLOAD,2022-12-05 12:00:00,15.08824463,0.0002142,53.2162,176.6533,59.2834,277.642,0.0027105,0.00043096,0.0,0 STARLINK-4600,1 53628U 22104AS  22339.50001157  .00043096  00000-0  27105-2 0  9990,2 53628  53.2162 176.6533 0002142  59.2834 277.6420 15.08824463  1309,6917.928000000001,95.439,541.275,538.311,0.0
53628.0,STARLINK-4600,PAYLOAD,2022-12-05 20:03:05,15.08846083,0.0002187,53.2178,175.1495,58.3739,301.7466,6.3885e-05,7.29e-06,0.0,0 STARLINK-4600,1 53628U 22104AS  22339.83547698  .00000729  00000-0  63885-4 0  9994,2 53628  53.2178 175.1495 0002187  58.3739 301.7466 15.08846083 15441,6917.861999999999,95.437,541.24,538.214,0.0
53628.0,STARLINK-4600,PAYLOAD,2022-12-06 13:32:19,15.08841999,0.0002288,53.2159,171.8777,60.0688,300.0531,-2.660800000000001e-05,-7.12e-06,0.0,0 STARLINK-4600,1 53628U 22104AS  22340.56411761 -.00000712  00000-0 -26608-4 0  9993,2 53628  53.2159 171.8777 0002288  60.0688 300.0531 15.08841999 16246,6917.874,95.437,541.322,538.156,0.0
53628.0,STARLINK-4600,PAYLOAD,2022-12-06 19:53:52,15.08841787,0.0002265,53.2169,170.6882,61.2837,298.8382,-3.0122e-06,-3.36e-06,0.0,0 STARLINK-4600,1 53628U 22104AS  22340.82907941 -.00000336  00000-0 -30122-5 0  9991,2 53628  53.2169 170.6882 0002265  61.2837 298.8382 15.08841787 16282,6917.875,95.437,541.307,538.173,0.0
53628.0,STARLINK-4600,PAYLOAD,2022-12-06 23:04:38,15.08841794,0.0002267,53.217,170.0934,59.8673,300.2544,-1.1939e-05,-4.78e-06,0.0,0 STARLINK-4600,1 53628U 22104AS  22340.96155932 -.00000478  00000-0 -11939-4 0  9992,2 53628  53.2170 170.0934 0002267  59.8673 300.2544 15.08841794 15611,6917.875,95.437,541.308,538.172,0.0
53628.0,STARLINK-4600,PAYLOAD,2022-12-07 19:44:40,15.08831662,0.0002067,53.218,166.2269,59.0151,301.1044,-4.4278e-05,-9.93e-06,0.0,0 STARLINK-4600,1 53628U 22104AS  22341.82268972 -.00000993  00000-0 -44278-4 0  9991,2 53628  53.2180 166.2269 0002067  59.0151 301.1044 15.08831662 15743,6917.906,95.438,541.201,538.341,0.0
53628.0,STARLINK-4600,PAYLOAD,2022-12-08 05:16:59,15.08833382,0.0002155,53.2178,164.4426,58.1083,302.0118,-6.591e-05,-1.337e-05,0.0,0 STARLINK-4600,1 53628U 22104AS  22342.22013053 -.00001337  00000-0 -65910-4 0  9993,2 53628  53.2178 164.4426 0002155  58.1083 302.0118 15.08833382 16493,6917.901,95.438,541.256,538.275,0.0
53628.0,STARLINK-4600,PAYLOAD,2022-12-08 14:49:18,15.088282,0.0002095,53.2178,162.6586,58.0692,302.0503,3.4617e-05,2.63e-06,0.0,0 STARLINK-4600,1 53628U 22104AS  22342.61757336  .00000263  00000-0  34617-4 0  9990,2 53628  53.2178 162.6586 0002095  58.0692 302.0503 15.08828200 16556,6917.916,95.438,541.231,538.332,0.0
53628.0,STARLINK-4600,PAYLOAD,2022-12-09 13:04:42,15.08825878,0.0002091,53.2183,158.4968,60.8616,299.2585,0.00015873,2.238e-05,0.0,0 STARLINK-4600,1 53628U 22104AS  22343.54493596  .00002238  00000-0  15873-3 0  9994,2 53628  53.2183 158.4968 0002091  60.8616 299.2585 15.08825878 16692,6917.924,95.438,541.235,538.342,0.0
53628.0,STARLINK-4600,PAYLOAD,2022-12-10 11:20:05,15.08849973,9.84e-05,53.2188,154.3346,36.7598,323.3461,-3.3725e-05,-8.25e-06,0.0,0 STARLINK-4600,1 53628U 22104AS  22344.47228506 -.00000825  00000-0 -33725-4 0  9993,2 53628  53.2188 154.3346 0000984  36.7598 323.3461 15.08849973 16146,6917.85,95.437,540.396,539.034,0.0
53628.0,STARLINK-4600,PAYLOAD,2022-12-10 17:41:38,15.08842536,0.0002179,53.2183,153.1445,60.8592,299.2618,0.00015009,2.101e-05,0.0,0 STARLINK-4600,1 53628U 22104AS  22344.73725222  .00002101  00000-0  15009-3 0  9990,2 53628  53.2183 153.1445 0002179  60.8592 299.2618 15.08842536 16185,6917.873000000001,95.437,541.245,538.23,0.0
53628.0,STARLINK-4600,PAYLOAD,2022-12-10 22:27:47,15.08845619,0.0002152,53.2178,152.2516,60.8984,299.2223,0.00017224,2.454e-05,0.0,0 STARLINK-4600,1 53628U 22104AS  22344.93597035  .00002454  00000-0  17224-3 0  9993,2 53628  53.2178 152.2516 0002152  60.8984 299.2223 15.08845619 16901,6917.863,95.437,541.217,538.239,0.0
53628.0,STARLINK-4600,PAYLOAD,2022-12-11 20:43:11,15.0885024,0.0001953,53.2168,148.0887,63.8017,296.3176,0.00014956,2.094e-05,0.0,0 STARLINK-4600,1 53628U 22104AS  22345.86332577  .00002094  00000-0  14956-3 0  9993,2 53628  53.2168 148.0887 0001953  63.8017 296.3176 15.08850240 17049,6917.849,95.437,541.065,538.363,0.0
53628.0,STARLINK-4600,PAYLOAD,2022-12-12 11:01:39,15.08851977,0.0002134,53.2171,145.4119,61.0911,299.0295,9.4907e-05,1.223e-05,0.0,0 STARLINK-4600,1 53628U 22104AS  22346.45948214  .00001223  00000-0  94907-4 0  9998,2 53628  53.2171 145.4119 0002134  61.0911 299.0295 15.08851977 17137,6917.844,95.437,541.185,538.2330000000002,0.0
53628.0,STARLINK-4600,PAYLOAD,2022-12-12 22:09:21,15.08848173,0.000214,53.2172,143.3304,61.4271,298.6936,2.1515e-05,5.4e-07,0.0,0 STARLINK-4600,1 53628U 22104AS  22346.92316120  .00000054  00000-0  21515-4 0  9991,2 53628  53.2172 143.3304 0002140  61.4271 298.6936 15.08848173 16513,6917.855,95.437,541.201,538.24,0.0
53628.0,STARLINK-4600,PAYLOAD,2022-12-13 10:52:26,15.08845397,0.0002119,53.2173,140.9513,62.3912,297.7295,-1.8378e-05,-5.81e-06,0.0,0 STARLINK-4600,1 53628U 22104AS  22347.45308022 -.00000581  00000-0 -18378-4 0  9992,2 53628  53.2173 140.9513 0002119  62.3912 297.7295 15.08845397 17285,6917.864000000001,95.437,541.195,538.263,0.0
53628.0,STARLINK-4600,PAYLOAD,2022-12-13 20:24:44,15.08849213,0.0002186,53.2171,139.1685,60.9246,299.1965,1.384e-05,-6.8e-07,0.0,0 STARLINK-4600,1 53628U 22104AS  22347.85051628 -.00000068  00000-0  13840-4 0  9991,2 53628  53.2171 139.1685 0002186  60.9246 299.1965 15.08849213 17349,6917.852,95.437,541.229,538.205,0.0
